NORAD_CAT_ID,OBJECT_NAME,OBJECT_TYPE,EPOCH,MEAN_MOTION,ECCENTRICITY,INCLINATION,RA_OF_ASC_NODE,ARG_OF_PERICENTER,MEAN_ANOMALY,BSTAR,MEAN_MOTION_DOT,MEAN_MOTION_DDOT,TLE_LINE0,TLE_LINE1,TLE_LINE2,SEMIMAJOR_AXIS,PERIOD,APOGEE,PERIGEE,DECAYED
51152.0,STARLINK-3364,PAYLOAD,2024-06-27 08:42:05,15.08838812,0.0001349,53.216,213.4938,84.3105,275.8041,6.3699e-05,7.26e-06,0.0,0 STARLINK-3364,1 51152U 22005BA  24179.36256780  .00000726  00000-0  63699-4 0  9995,2 51152  53.2160 213.4938 0001349  84.3105 275.8041 15.08838812136068,6917.884,95.438,540.682,538.816,0.0
51152.0,STARLINK-3364,PAYLOAD,2024-06-28 05:22:07,15.08820017,0.0001216,53.2154,209.6269,98.3329,261.7801,0.00033963,5.119e-05,0.0,0 STARLINK-3364,1 51152U 22005BA  24180.22369422  .00005119  00000-0  33963-3 0  9991,2 51152  53.2154 209.6269 0001216  98.3329 261.7801 15.08820017136191,6917.941,95.439,540.648,538.965,0.0
51152.0,STARLINK-3364,PAYLOAD,2024-06-28 08:32:52,15.08842759,0.0001202,53.2145,209.0312,90.0815,270.0314,4.0339e-05,3.54e-06,0.0,0 STARLINK-3364,1 51152U 22005BA  24180.35616533  .00000354  00000-0  40339-4 0  9995,2 51152  53.2145 209.0312 0001202  90.0815 270.0314 15.08842759136210,6917.872,95.437,540.568,538.905,0.0
51152.0,STARLINK-3364,PAYLOAD,2024-06-29 05:12:54,15.08834608,0.000135,53.2152,205.1662,95.1767,264.9379,3.861e-05,3.27e-06,0.0,0 STARLINK-3364,1 51152U 22005BA  24181.21729250  .00000327  00000-0  38610-4 0  9991,2 51152  53.2152 205.1662 0001350  95.1767 264.9379 15.08834608136340,6917.897,95.438,540.696,538.828,0.0
51152.0,STARLINK-3364,PAYLOAD,2024-06-29 11:34:26,15.08838409,0.00014,53.215,203.9743,99.3875,260.7275,6.2444e-05,7.06e-06,0.0,0 STARLINK-3364,1 51152U 22005BA  24181.48224959  .00000706  00000-0  62444-4 0  9999,2 51152  53.2150 203.9743 0001400  99.3875 260.7275 15.08838409135279,6917.885,95.438,540.719,538.782,0.0
51152.0,STARLINK-3364,PAYLOAD,2024-06-30 08:14:28,15.08798921,0.0001572,53.2151,200.1113,91.4898,268.6274,0.00048659,7.456e-05,0.0,0 STARLINK-3364,1 51152U 22005BA  24182.34338364  .00007456  00000-0  48659-3 0  9991,2 51152  53.2151 200.1113 0001572  91.4898 268.6274 15.08798921136516,6918.006,95.44,540.958,538.783,0.0
51152.0,STARLINK-3364,PAYLOAD,2024-06-30 17:46:46,15.08834892,0.0001342,53.2154,198.3269,90.1481,269.9664,6.2799e-05,7.12e-06,0.0,0 STARLINK-3364,1 51152U 22005BA  24182.74081616  .00000712  00000-0  62799-4 0  9990,2 51152  53.2154 198.3269 0001342  90.1481 269.9664 15.08834892136579,6917.896,95.438,540.689,538.833,0.0
51152.0,STARLINK-3364,PAYLOAD,2024-07-01 11:16:00,15.08840484,0.0001323,53.2152,195.0558,89.6536,270.4607,8.7272e-05,1.101e-05,0.0,0 STARLINK-3364,1 51152U 22005BA  24183.46945339  .00001101  00000-0  87272-4 0  9997,2 51152  53.2152 195.0558 0001323  89.6536 270.4607 15.08840484135572,6917.879,95.438,540.659,538.829,0.0
51152.0,STARLINK-3364,PAYLOAD,2024-07-01 17:37:33,15.08839676,0.0001314,53.2153,193.8661,87.5635,272.5507,7.8154e-05,9.56e-06,0.0,0 STARLINK-3364,1 51152U 22005BA  24183.73441429  .00000956  00000-0  78154-4 0  9994,2 51152  53.2153 193.8661 0001314  87.5635 272.5507 15.08839676135619,6917.881,95.438,540.655,538.837,0.0
51152.0,STARLINK-3364,PAYLOAD,2024-07-02 04:45:15,15.08833939,0.0001364,53.2156,191.7849,89.0189,271.0959,6.3881e-05,7.29e-06,0.0,0 STARLINK-3364,1 51152U 22005BA  24184.19809957  .00000729  00000-0  63881-4 0  9998,2 51152  53.2156 191.7849 0001364  89.0189 271.0959 15.08833939136794,6917.899,95.438,540.708,538.82,0.0
51152.0,STARLINK-3364,PAYLOAD,2024-07-02 09:31:25,15.0883653,0.0001379,53.2156,190.8929,89.2395,270.8756,8.1749e-05,1.013e-05,0.0,0 STARLINK-3364,1 51152U 22005BA  24184.39681807  .00001013  00000-0  81749-4 0  9992,2 51152  53.2156 190.8929 0001379  89.2395 270.8756 15.08836530135713,6917.891,95.438,540.71,538.802,0.0
51152.0,STARLINK-3364,PAYLOAD,2024-07-03 04:36:02,15.08842976,0.0001391,53.2158,187.3245,88.5915,271.5236,5.8617e-05,6.45e-06,0.0,0 STARLINK-3364,1 51152U 22005BA  24185.19169423  .00000645  00000-0  58617-4 0  9994,2 51152  53.2158 187.3245 0001391  88.5915 271.5236 15.08842976136949,6917.871,95.437,540.699,538.774,0.0
51152.0,STARLINK-3364,PAYLOAD,2024-07-03 17:19:07,15.08843043,0.0001404,53.2159,184.9456,87.021,273.0943,3.8431e-05,3.24e-06,0.0,0 STARLINK-3364,1 51152U 22005BA  24185.72161345  .00000324  00000-0  38431-4 0  9994,2 51152  53.2159 184.9456 0001404  87.0210 273.0943 15.08843043135918,6917.871,95.437,540.707,538.765,0.0
51152.0,STARLINK-3364,PAYLOAD,2024-07-04 09:12:58,15.08840829,0.0001336,53.2156,181.9707,92.1902,267.9243,4.553e-05,4.37e-06,0.0,0 STARLINK-3364,1 51152U 22005BA  24186.38401378  .00000437  00000-0  45530-4 0  9993,2 51152  53.2156 181.9707 0001336  92.1902 267.9243 15.08840829137129,6917.878,95.438,540.667,538.819,0.0
51152.0,STARLINK-3364,PAYLOAD,2024-07-04 23:31:27,15.08838924,0.0001357,53.2157,179.2942,93.0126,267.1021,-1.1033e-06,-3.05e-06,0.0,0 STARLINK-3364,1 51152U 22005BA  24186.98017638 -.00000305  00000-0 -11033-5 0  9999,2 51152  53.2157 179.2942 0001357  93.0126 267.1021 15.08838924136108,6917.884,95.438,540.687,538.81,0.0
51152.0,STARLINK-3364,PAYLOAD,2024-07-05 09:03:45,15.0884156,0.0001387,53.2158,177.5107,89.9146,270.2005,1.8024e-05,-1e-08,0.0,0 STARLINK-3364,1 51152U 22005BA  24187.37761389 -.00000001  00000-0  18024-4 0  9990,2 51152  53.2158 177.5107 0001387  89.9146 270.2005 15.08841560136165,6917.876,95.437,540.7,538.781,0.0
51152.0,STARLINK-3364,PAYLOAD,2024-07-05 17:00:41,15.08840755,0.0001381,53.216,176.0238,90.2948,269.8202,2.42e-05,9.7e-07,0.0,0 STARLINK-3364,1 51152U 22005BA  24187.70881385  .00000097  00000-0  24200-4 0  9993,2 51152  53.2160 176.0238 0001381  90.2948 269.8202 15.08840755137323,6917.878,95.438,540.698,538.788,0.0
51152.0,STARLINK-3364,PAYLOAD,2024-07-06 08:54:32,15.08841178,0.0001389,53.216,173.05,90.9199,269.1952,4.4291e-05,4.17e-06,0.0,0 STARLINK-3364,1 51152U 22005BA  24188.37121270  .00000417  00000-0  44291-4 0  9995,2 51152  53.2160 173.0500 0001389  90.9199 269.1952 15.08841178136318,6917.877,95.437,540.703,538.781,0.0
51152.0,STARLINK-3364,PAYLOAD,2024-07-07 05:34:33,15.08837874,0.0001392,53.2162,169.1843,90.2891,269.8261,3.3774e-05,2.5e-06,0.0,0 STARLINK-3364,1 51152U 22005BA  24189.23233572  .00000250  00000-0  33774-4 0  9999,2 51152  53.2162 169.1843 0001392  90.2891 269.8261 15.08837874137557,6917.887,95.438,540.715,538.789,0.0
51152.0,STARLINK-3364,PAYLOAD,2024-07-07 08:45:20,15.08838606,0.0001374,53.2162,168.5895,89.3982,270.7168,1.9675e-05,2.5e-07,0.0,0 STARLINK-3364,1 51152U 22005BA  24189.36481575  .00000025  00000-0  19675-4 0  9995,2 51152  53.2162 168.5895 0001374  89.3982 270.7168 15.08838606136467,6917.885,95.438,540.7,538.799,0.0
51152.0,STARLINK-3364,PAYLOAD,2024-07-08 05:25:20,15.0883933,0.0001316,53.2159,164.7237,88.1038,272.0105,3.7121e-05,3.03e-06,0.0,0 STARLINK-3364,1 51152U 22005BA  24190.22593576  .00000303  00000-0  37121-4 0  9992,2 51152  53.2159 164.7237 0001316  88.1038 272.0105 15.08839330136591,6917.882,95.438,540.658,538.837,0.0
51152.0,STARLINK-3364,PAYLOAD,2024-07-08 21:19:13,15.08820878,0.0001424,53.2174,161.7526,97.4626,262.6528,0.00017952,2.569e-05,0.0,0 STARLINK-3364,1 51152U 22005BA  24190.88834630  .00002569  00000-0  17952-3 0  9998,2 51152  53.2174 161.7526 0001424  97.4626 262.6528 15.08820878137808,6917.939,95.439,540.789,538.819,0.0
51152.0,STARLINK-3364,PAYLOAD,2024-07-09 05:16:08,15.0883409,0.0001425,53.2175,160.2659,94.5073,265.6082,-1.2622e-05,-4.89e-06,0.0,0 STARLINK-3364,1 51152U 22005BA  24191.21954370 -.00000489  00000-0 -12622-4 0  9991,2 51152  53.2175 160.2659 0001425  94.5073 265.6082 15.08834090137859,6917.898,95.438,540.749,538.778,0.0
51152.0,STARLINK-3364,PAYLOAD,2024-07-09 06:51:31,15.08814252,0.0001543,53.2178,159.9685,96.5059,263.6109,0.00026328,3.902e-05,0.0,0 STARLINK-3364,1 51152U 22005BA  24191.28578676  .00003902  00000-0  26328-3 0  9997,2 51152  53.2178 159.9685 0001543  96.5059 263.6109 15.08814252137860,6917.959,95.439,540.892,538.757,0.0
51152.0,STARLINK-3364,PAYLOAD,2024-07-09 14:48:27,15.08836125,0.0001448,53.2181,158.482,93.8801,266.2357,-1.4654e-05,-5.21e-06,0.0,0 STARLINK-3364,1 51152U 22005BA  24191.61698376 -.00000521  00000-0 -14654-4 0  9990,2 51152  53.2181 158.4820 0001448  93.8801 266.2357 15.08836125137911,6917.892,95.438,540.759,538.756,0.0
51152.0,STARLINK-3364,PAYLOAD,2024-07-10 14:39:14,15.08839971,0.0001404,53.2172,154.0211,89.3796,270.7357,3.3042e-05,2.38e-06,0.0,0 STARLINK-3364,1 51152U 22005BA  24192.61058354  .00000238  00000-0  33042-4 0  9992,2 51152  53.2172 154.0211 0001404  89.3796 270.7357 15.08839971136957,6917.88,95.438,540.717,538.774,0.0
51152.0,STARLINK-3364,PAYLOAD,2024-07-11 04:57:42,15.08840554,0.0001535,53.217,151.3452,88.2748,271.842,8.1547e-05,1.01e-05,0.0,0 STARLINK-3364,1 51152U 22005BA  24193.20674310  .00001010  00000-0  81547-4 0  9996,2 51152  53.2170 151.3452 0001535  88.2748 271.8420 15.08840554138158,6917.879,95.438,540.806,538.682,0.0
51152.0,STARLINK-3364,PAYLOAD,2024-07-11 06:33:05,15.08842656,0.0001442,53.2169,151.0476,84.9881,275.1275,0.00013268,1.824e-05,0.0,0 STARLINK-3364,1 51152U 22005BA  24193.27298009  .00001824  00000-0  13268-3 0  9997,2 51152  53.2169 151.0476 0001442  84.9881 275.1275 15.08842656137055,6917.872,95.437,540.735,538.74,0.0
51152.0,STARLINK-3364,PAYLOAD,2024-07-12 06:23:52,15.08846837,0.0001381,53.2159,146.5848,97.3969,262.718,8.2889e-05,1.032e-05,0.0,0 STARLINK-3364,1 51152U 22005BA  24194.26657833  .00001032  00000-0  82889-4 0  9998,2 51152  53.2159 146.5848 0001381  97.3969 262.7180 15.08846837138315,6917.859,95.437,540.68,538.769,0.0
51152.0,STARLINK-3364,PAYLOAD,2024-07-12 14:20:48,15.08839787,0.0001395,53.2162,145.0963,93.8552,266.2599,2.8667e-05,1.68e-06,0.0,0 STARLINK-3364,1 51152U 22005BA  24194.59778428  .00000168  00000-0  28667-4 0  9991,2 51152  53.2162 145.0963 0001395  93.8552 266.2599 15.08839787137256,6917.881,95.438,540.711,538.781,0.0
